STARLINK-2130           
1 47405U 21005BJ  24096.85761537  .00009638  00000+0  66474-3 0  9996
2 47405  53.0553 336.7524 0001530  86.1531 273.9633 15.06417343177109
STARLINK-2133           
1 47406U 21005BK  24096.88617135  .00002250  00000+0  16986-3 0  9990
2 47406  53.0545 306.6221 0001315  89.7760 270.3380 15.06408626177536
STARLINK-2134           
1 47407U 21005BL  24096.89354509  .00001688  00000+0  13218-3 0  9994
2 47407  53.0536 306.5892 0001375  93.2981 266.8165 15.06411282177534
STARLINK-2135           
1 47408U 21005BM  24096.86406203  .00001617  00000+0  12741-3 0  9993
2 47408  53.0549 306.7226 0001190  87.5090 272.6035 15.06405383177530
STARLINK-1782           
1 47548U 21009A   24096.80324291  .00002558  00000+0  19048-3 0  9994
2 47548  53.0547 286.9951 0001332  92.3103 267.8038 15.06408927174997
STARLINK-1806           
1 47549U 21009B   24096.93224990  .00000950  00000+0  82649-4 0  9996
2 47549  53.0539 286.4173 0001295  81.9630 278.1506 15.06400608175014
STARLINK-1909           
1 47550U 21009C   24096.81153750  .00000386  00000+0  44806-4 0  9996
2 47550  53.0547 276.9584 0001313  93.3010 266.8130 15.06407418175131
STARLINK-1938           
1 47551U 21009D   24096.80598914 -.00000362  00000+0 -53958-5 0  9996
2 47551  53.0539 296.9811 0001477  94.8003 265.3154 15.06395538174854
STARLINK-1940           
1 47552U 21009E   24096.81059281  .00024226  00000+0  16362-2 0  9995
2 47552  53.0538 286.9617 0001107  92.3370 267.7746 15.06478934174997
STARLINK-1953           
1 47554U 21009G   24096.88248620  .00005536  00000+0  39007-3 0  9996
2 47554  53.0543 306.6394 0001196  88.7780 271.3346 15.06415952174728
STARLINK-1954           
1 47555U 21009H   24096.85761195  .00001281  00000+0  10488-3 0  9996
2 47555  53.0549 296.7501 0001431  97.1836 262.9315 15.06404414174860
STARLINK-1955           
1 47556U 21009J   24096.89265101  .00001385  00000+0  11185-3 0  9997
2 47556  53.0545 316.5924 0001202  91.5761 268.5365 15.06392988174586
STARLINK-1956           
1 47557U 21009K   24096.85577517  .00004269  00000+0  30525-3 0  9994
2 47557  53.0541 316.7602 0001428  91.3424 268.7729 15.06406508174582
STARLINK-1957           
1 47558U 21009L   24096.90276413  .00004467  00000+0  31861-3 0  9996
2 47558  53.0535 286.5478 0001256  92.2512 267.8621 15.06398709175000
STARLINK-1958           
1 47559U 21009M   24096.80047455  .00002261  00000+0  17058-3 0  9990
2 47559  53.0531 277.0051 0001272  88.8014 271.3120 15.06408759175130
STARLINK-1959           
1 47560U 21009N   24096.79216864  .00005619  00000+0  39566-3 0  9990
2 47560  53.0523 277.0343 0001553  85.4629 274.6537 15.06415742175132
STARLINK-1960           
1 47561U 21009P   24096.84654868 -.00000272  00000+0  61610-6 0  9996
2 47561  53.0546 296.8019 0001451  84.7877 275.3277 15.06397860174869
STARLINK-1961           
1 47562U 21009Q   24096.86129761  .00002015  00000+0  15413-3 0  9991
2 47562  53.0539 296.7360 0001453  99.1469 260.9685 15.06402159174860
STARLINK-1962           
1 47563U 21009R   24096.81703555  .00005733  00000+0  40304-3 0  9993
2 47563  53.0543 296.9324 0001301  94.6976 265.4162 15.06435516174855
STARLINK-1963           
1 47564U 21009S   24096.81798559  .00000245  00000+0  35302-4 0  9998
2 47564  53.0536 286.9280 0001143  85.8755 274.2364 15.06404422174998
STARLINK-1964           
1 47565U 21009T   24096.81429479  .00001805  00000+0  13999-3 0  9991
2 47565  53.0549 286.9445 0001386  84.3154 275.7993 15.06408296174999
STARLINK-1965           
1 47566U 21009U   24096.80786913 -.00000994  00000+0 -47880-4 0  9997
2 47566  53.0547 276.9741 0001403  94.6756 265.4393 15.06388742175138
STARLINK-1966           
1 47567U 21009V   24096.84471467  .00001071  00000+0  90747-4 0  9992
2 47567  53.0545 316.8078 0001464  86.1747 273.9409 15.06404246174574
STARLINK-1967           
1 47568U 21009W   24096.87051163  .00002708  00000+0  20061-3 0  9992
2 47568  53.0544 316.6934 0001330  90.1834 269.9308 15.06405837174588
STARLINK-1969           
1 47570U 21009Y   24097.00002315  .00640212  00000+0  23457-1 0  9994
2 47570  53.0519 274.9534 0001098  73.7700 187.9712 15.25083878  5720
STARLINK-1970           
1 47571U 21009Z   24096.80692959  .00003554  00000+0  25729-3 0  9999
2 47571  53.0536 286.9792 0001437  91.6609 268.4545 15.06411232174996
STARLINK-1971           
1 47572U 21009AA  24096.78849771  .00002820  00000+0  20810-3 0  9994
2 47572  53.0546 287.0643 0001169  93.4335 266.6788 15.06407543174992
STARLINK-1975           
1 47573U 21009AB  24096.89908833  .00000716  00000+0  66920-4 0  9997
2 47573  53.0539 286.5629 0001337  84.1848 275.9293 15.06402583175002
STARLINK-1976           
1 47574U 21009AC  24096.91475061  .00004223  00000+0  30216-3 0  9998
2 47574  53.0551 316.4961 0001436  99.0363 261.0789 15.06406089174589
STARLINK-1977           
1 47575U 21009AD  24096.90369501  .00004796  00000+0  34057-3 0  9991
2 47575  53.0549 316.5459 0001430  91.4920 268.6232 15.06407339174584
STARLINK-1978           
1 47576U 21009AE  24096.80415955  .00001673  00000+0  13117-3 0  9991
2 47576  53.0540 276.9899 0001402  90.7403 269.3746 15.06405400175137
STARLINK-1979           
1 47577U 21009AF  24096.84519399 -.00001971  00000+0 -11354-3 0  9997
2 47577  53.0557 291.8069 0001317  90.9342 269.1798 15.06383137174934
STARLINK-1980           
1 47578U 21009AG  24096.83918154  .00006700  00000+0  46801-3 0  9997
2 47578  53.0536 296.8340 0001698  82.5903 277.5279 15.06417862174852
STARLINK-1981           
1 47579U 21009AH  24096.82167249  .00000337  00000+0  41528-4 0  9990
2 47579  53.0543 286.9130 0001173  93.8274 266.2849 15.06408588174990
STARLINK-1982           
1 47580U 21009AJ  24096.84286607  .00001373  00000+0  11106-3 0  9993
2 47580  53.0539 296.8162 0001427  90.2214 269.8939 15.06403543174859
STARLINK-1984           
1 47581U 21009AK  24096.82259271  .00002119  00000+0  16112-3 0  9990
2 47581  53.0549 276.9086 0001326 100.0714 260.0425 15.06396585175130
STARLINK-1986           
1 47582U 21009AL  24096.87604226  .00003729  00000+0  26904-3 0  9998
2 47582  53.0535 296.6684 0001477  92.9369 267.1789 15.06407255174868
STARLINK-1987           
1 47583U 21009AM  24096.85392202  .00002976  00000+0  21859-3 0  9992
2 47583  53.0529 296.7661 0001426  87.1148 273.0004 15.06406258174861
STARLINK-1989           
1 47585U 21009AP  24096.81338415  .00005105  00000+0  36120-3 0  9990
2 47585  53.0540 296.9521 0001332  93.0978 267.0163 15.06417541174851
STARLINK-1990           
1 47586U 21009AQ  24096.86314925  .00003640  00000+0  26308-3 0  9995
2 47586  53.0552 316.7269 0001589  89.7651 270.3520 15.06407094174585
STARLINK-1991           
1 47587U 21009AR  24096.79218709  .00005360  00000+0  37834-3 0  9998
2 47587  53.0536 287.0459 0001570  90.5530 269.5639 15.06412566174991
STARLINK-1993           
1 47588U 21009AS  24096.85023471  .00002035  00000+0  15543-3 0  9995
2 47588  53.0533 296.7825 0001384  90.9587 269.1560 15.06407265174867
STARLINK-1994           
1 47589U 21009AT  24096.86867189  .00002316  00000+0  17432-3 0  9990
2 47589  53.0537 296.7020 0001334  93.1139 267.0003 15.06405631174866
STARLINK-1995           
1 47590U 21009AU  24096.85946725  .00004155  00000+0  29766-3 0  9991
2 47590  53.0542 316.7447 0001415  94.6063 265.5088 15.06399007174586
STARLINK-1996           
1 47591U 21009AV  24096.86498579  .00001854  00000+0  14334-3 0  9990
2 47591  53.0542 296.7182 0001346 101.5688 258.5452 15.06399636174860
STARLINK-1997           
1 47592U 21009AW  24096.89631086  .00004490  00000+0  32002-3 0  9997
2 47592  53.0551 316.5775 0001283  89.8356 270.2780 15.06414457175180
STARLINK-1998           
1 47593U 21009AX  24096.86683831  .00002458  00000+0  18384-3 0  9999
2 47593  53.0556 316.7123 0001415  93.5252 266.5899 15.06406592174582
STARLINK-1999           
1 47594U 21009AY  24096.90000328  .00003831  00000+0  27585-3 0  9998
2 47594  53.0540 316.5655 0001209  88.2084 271.9043 15.06409898174582
STARLINK-2000           
1 47595U 21009AZ  24096.88525366  .00008459  00000+0  58581-3 0  9991
2 47595  53.0547 316.6287 0001361  88.3053 271.8091 15.06418691174581
STARLINK-2001           
1 47596U 21009BA  24096.88893842  .00006029  00000+0  42312-3 0  9995
2 47596  53.0542 316.6109 0001591  87.5350 272.5821 15.06415128174587
STARLINK-2002           
1 47597U 21009BB  24096.88157351  .00005244  00000+0  37056-3 0  9991
2 47597  53.0548 316.6454 0001302  87.9437 272.1701 15.06411145174585
STARLINK-2003           
1 47598U 21009BC  24096.82535530  .00000713  00000+0  66739-4 0  9992
2 47598  53.0544 286.8943 0001354  88.2252 271.8892 15.06403801175004
STARLINK-2004           
1 47599U 21009BD  24097.00002315  .00394020  00000+0  13022-1 0  9995
2 47599  53.0563 273.4755 0001132  57.7642 145.8660 15.29188592  5846
STARLINK-2005           
1 47600U 21009BE  24096.90736512  .00005150  00000+0  36433-3 0  9995
2 47600  53.0532 276.4983 0001389  88.6913 271.4236 15.06407014175154
STARLINK-2006           
1 47601U 21009BF  24096.81890585  .00004581  00000+0  32614-3 0  9991
2 47601  53.0535 276.9236 0001184  91.4267 268.6857 15.06408587175132
STARLINK-2007           
1 47602U 21009BG  24096.90067766  .00005034  00000+0  34971-3 0  9991
2 47602  53.0537 286.4968 0000288 114.9892 245.1127 15.07134386175002
STARLINK-2008           
1 47603U 21009BH  24096.85207958  .00004074  00000+0  29216-3 0  9994
2 47603  53.0550 316.7769 0001388  92.3957 267.7191 15.06412017174578
STARLINK-2021           
1 47604U 21009BJ  24096.84748812  .00012339  00000+0  84536-3 0  9992
2 47604  53.0523 286.7952 0001211 119.3020 240.8090 15.06420584175002
STARLINK-2024           
1 47606U 21009BL  24096.78482433  .00001141  00000+0  95503-4 0  9997
2 47606  53.0541 287.0792 0001232  95.1124 265.0006 15.06393625174997
